IRIDIUM 116             
1 43072U 17083C   25081.25452504  .00000526  00000+0  18092-3 0  9993
2 43072  86.4013 150.9401 0001863  99.8533 260.2873 14.34215475379390
IRIDIUM 130             
1 43073U 17083D   25081.57165610  .00000458  00000+0  15641-3 0  9999
2 43073  86.4017 151.0382 0001844  95.3651 264.7755 14.34217339379384
IRIDIUM 151             
1 43074U 17083E   25081.61606327  .00000101  00000+0  29007-4 0  9997
2 43074  86.4016 150.8375 0002211 101.6919 258.4525 14.34213176379414
IRIDIUM 134             
1 43075U 17083F   25081.58433016  .00000800  00000+0  27850-3 0  9996
2 43075  86.4014 150.8519 0002028  90.6744 269.4684 14.34225157379377
IRIDIUM 137             
1 43076U 17083G   25081.59702490  .00001196  00000+0  41980-3 0  9992
2 43076  86.4016 150.9302 0001862 111.8456 248.2938 14.34217215379443
IRIDIUM 141             
1 43077U 17083H   25081.59068477  .00000683  00000+0  23688-3 0  9998
2 43077  86.4011 150.7894 0002419  91.3056 268.8417 14.34218019379443
IRIDIUM 153             
1 43078U 17083J   25081.54286497  .00000384  00000+0  12996-3 0  9996
2 43078  86.3940 119.3075 0002721  88.4507 271.7000 14.34217674380540
IRIDIUM 131             
1 43079U 17083K   25081.57799965  .00000705  00000+0  24449-3 0  9992
2 43079  86.4018 150.9502 0002420  97.7425 262.4045 14.34219578379372
